SAR-LUPE 2              
1 31797U 07030A   26166.53906390  .00043310  00000+0  77188-3 0  9997
2 31797  98.1047 270.7665 0005166 149.9342 210.2204 15.49973021 56688
SAPPHIRE                
1 39088U 13009C   26166.48870095  .00000087  00000+0  45306-4 0  9999
2 39088  98.4259 345.9848 0010038 252.2617 107.7473 14.35240137696331
PRAETORIAN SDA_602      
1 65565U 25203A   26166.28941088  .00000055  00000+0  38354-4 0  9996
2 65565  81.3032  12.5268 0005669 189.2430 170.8624 13.84342564 38439
PRAETORIAN SDA_603      
1 65566U 25203B   26166.53239491  .00000235  00000+0  20151-3 0  9998
2 65566  81.3034  12.2174 0009238 192.0913 168.0023 13.83904856 38472
PRAETORIAN SDA_604      
1 65567U 25203C   26166.55108595  .00000054  00000+0  38796-4 0  9995
2 65567  81.3053  12.6097 0005183 196.1623 163.9369 13.83047312 38450
PRAETORIAN SDA_605      
1 65568U 25203D   26166.51687575  .00000046  00000+0  31066-4 0  9996
2 65568  81.3019  12.3060 0007995 187.5744 172.5293 13.83434026 38466
PRAETORIAN SDA_606      
1 65569U 25203E   26166.28241612  .00000061  00000+0  44811-4 0  9998
2 65569  81.3055  12.7438 0005611 186.2638 173.8449 13.83407187 38422
PRAETORIAN SDA_607      
1 65570U 25203F   26166.50849258  .00000205  00000+0  17332-3 0  9992
2 65570  81.3039  12.2008 0008590 192.0785 168.0167 13.84284574 38473
PRAETORIAN SDA_608      
1 65571U 25203G   26166.05150450  .00000053  00000+0  36820-4 0  9997
2 65571  81.3007  12.7848 0005666 196.7984 163.2986 13.83816576 38398
PRAETORIAN SDA_609      
1 65572U 25203H   26166.05702039  .00000138  00000+0  11345-3 0  9992
2 65572  81.3052  12.7631 0006556 190.8268 169.2749 13.84211201 38408
PRAETORIAN SDA_610      
1 65573U 25203J   26166.53742426  .00000046  00000+0  30497-4 0  9998
2 65573  81.3007  12.2929 0006348 193.0290 167.0703 13.83851713 38462
PRAETORIAN SDA_611      
1 65574U 25203K   26166.53755872  .00000927  00000+0  83362-3 0  9994
2 65574  81.3005  12.4576 0005204 199.0630 161.0332 13.83309159 38458
PRAETORIAN SDA_612      
1 65575U 25203L   26166.52923102  .00000193  00000+0  15997-3 0  9991
2 65575  81.3029  12.0546 0009096 191.4758 168.6193 13.85039381 38488
PRAETORIAN SDA_613      
1 65576U 25203M   26166.54365597  .00000044  00000+0  29619-4 0  9994
2 65576  81.2999  12.4472 0005475 188.4038 171.7027 13.82764858 38459
PRAETORIAN SDA_614      
1 65577U 25203N   26166.51809450  .00000034  00000+0  19378-4 0  9993
2 65577  81.3014  12.1430 0006914 188.2659 171.8385 13.84777910 38482
PRAETORIAN SDA_615      
1 65578U 25203P   26166.06094397  .00000168  00000+0  13974-3 0  9993
2 65578  81.3022  12.5294 0008782 191.2544 168.8418 13.84436027 38413
PRAETORIAN SDA_616      
1 65579U 25203Q   26166.53672273  .00000224  00000+0  19382-3 0  9993
2 65579  81.3063  12.6019 0005184 196.6533 163.4454 13.83267635 38456
PRAETORIAN SDA_617      
1 65580U 25203R   26166.19649526  .00000012  00000+0 -21043-6 0  9998
2 65580  81.3030  12.7478 0007169 189.9473 170.1542 13.83149798 38413
PRAETORIAN SDA_618      
1 65581U 25203S   26166.53316455  .00000198  00000+0  16535-3 0  9990
2 65581  81.3021  12.0220 0009518 192.2963 167.7963 13.84669479 38483
PRAETORIAN SDA_619      
1 65582U 25203T   26166.49577610  .00000226  00000+0  19323-3 0  9998
2 65582  81.3044  12.3512 0007936 190.3950 169.7044 13.83805746 39091
PRAETORIAN SDA_620      
1 65583U 25203U   26166.52353661  .00000200  00000+0  17073-3 0  9993
2 65583  81.3029  12.3462 0007451 185.4458 174.6618 13.83618052 38463
PRAETORIAN SDA_621      
1 65584U 25203V   26166.28063154  .00000046  00000+0  30509-4 0  9990
2 65584  81.3021  12.4895 0007249 183.8720 176.2382 13.83800970 38431
PRAETORIAN SDA_601      
1 65585U 25203W   26166.53973911  .00000715  00000+0  64183-3 0  9997
2 65585  81.3035  12.5444 0005156 200.2480 159.8472 13.83167900 38458
